{
  "norad_id": 40074,
  "name": "UKUBE-1",
  "history": [
    {
      "epoch": "2026-03-28T22:35:47.061888",
      "apogee_km": 531.6931877210236,
      "perigee_km": 527.3316978628436,
      "latitude_deg": 55.48219032810274,
      "longitude_deg": 77.78562431992032,
      "semi_major_axis_km": 6907.649442791933,
      "eccentricity": 0.0003157,
      "inclination_deg": 98.4237,
      "raan_deg": 82.8709,
      "arg_perigee_deg": 82.6195,
      "mean_anomaly_deg": 277.5392,
      "mean_motion_rev_day": 15.12193364
    },
    {
      "epoch": "2026-03-28T22:35:47.062752",
      "apogee_km": 531.6929114150453,
      "perigee_km": 527.331974168822,
      "latitude_deg": 55.48218002406084,
      "longitude_deg": 77.78562527988106,
      "semi_major_axis_km": 6907.649442791933,
      "eccentricity": 0.00031566,
      "inclination_deg": 98.4237,
      "raan_deg": 82.8709,
      "arg_perigee_deg": 82.6195,
      "mean_anomaly_deg": 277.5392,
      "mean_motion_rev_day": 15.12193364
    }
  ]
}